[{"OBJECT_NAME":"STARLINK-4272","OBJECT_ID":"2022-062AN","EPOCH":"2026-03-09T06:21:59.461056","MEAN_MOTION":15.08831406,"ECCENTRICITY":0.00013557,"INCLINATION":53.2188,"RA_OF_ASC_NODE":26.0231,"ARG_OF_PERICENTER":114.2772,"MEAN_ANOMALY":245.8362,"EPHEMERIS_TYPE":0,"CLASSIFICATION_TYPE":"U","NORAD_CAT_ID":52866,"ELEMENT_SET_NO":999,"REV_AT_EPOCH":20586,"BSTAR":-5.7877137e-5,"MEAN_MOTION_DOT":-1.209e-5,"MEAN_MOTION_DDOT":0},{"OBJECT_NAME":"LEMUR-2-KREMPEL-BRO1","OBJECT_ID":"2025-061G","EPOCH":"2026-03-09T22:19:45.751296","MEAN_MOTION":15.13773226,"ECCENTRICITY":0.0017497,"INCLINATION":97.5535,"RA_OF_ASC_NODE":45.5283,"ARG_OF_PERICENTER":227.946,"MEAN_ANOMALY":132.0284,"EPHEMERIS_TYPE":0,"CLASSIFICATION_TYPE":"U","NORAD_CAT_ID":63357,"ELEMENT_SET_NO":999,"REV_AT_EPOCH":5261,"BSTAR":0.00031891713,"MEAN_MOTION_DOT":5.707e-5,"MEAN_MOTION_DDOT":0}]
